OBJECT_NAME,OBJECT_ID,EPOCH,MEAN_MOTION,ECCENTRICITY,INCLINATION,RA_OF_ASC_NODE,ARG_OF_PERICENTER,MEAN_ANOMALY,EPHEMERIS_TYPE,CLASSIFICATION_TYPE,NORAD_CAT_ID,ELEMENT_SET_NO,REV_AT_EPOCH,BSTAR,MEAN_MOTION_DOT,MEAN_MOTION_DDOT
DMSP 5D-3 F16 (USA 172),2003-048A,2026-06-17T22:53:03.083424,14.14483190,.00077869,98.9890,192.7869,138.2457,337.8580,0,U,28054,999,16959,.8505177E-5,-.29E-6,0
METEOSAT-9 (MSG-2),2005-049B,2026-06-17T20:09:04.483008,1.00272435,.00016603,9.3634,54.1628,344.5140,215.3198,0,U,28912,999,700,0,.114E-5,0
DMSP 5D-3 F17 (USA 191),2006-050A,2026-06-17T22:44:25.779840,14.14993062,.00111479,98.7378,175.5021,57.3902,302.8346,0,U,29522,999,1253,.11263753E-4,-.21E-6,0
FENGYUN 3A,2008-026A,2026-06-17T19:44:36.909024,14.19571285,.00096151,98.6883,109.6439,121.9890,238.2222,0,U,32958,999,93549,.46601221E-4,.55E-6,0
GOES 14,2009-033A,2026-06-17T22:11:41.721216,1.00110618,.00017844,1.6928,83.0316,11.6820,285.7843,0,U,35491,999,659,0,-.3E-5,0
DMSP 5D-3 F18 (USA 210),2009-057A,2026-06-17T22:03:17.321472,14.14897147,.00099099,98.9037,149.6864,247.2146,112.7981,0,U,35951,999,85969,.13611031E-3,.218E-5,0
EWS-G2 (GOES 15),2010-008A,2026-06-17T21:49:36.339168,1.00265913,.00048102,1.2804,82.8321,42.3888,172.0396,0,U,36411,999,5964,0,.14E-6,0
COMS 1,2010-032A,2026-06-17T20:08:53.147328,0.99162618,.00115312,4.8074,75.3468,11.8661,191.9386,0,U,36744,999,5109,0,.66E-6,0
FENGYUN 3B,2010-059A,2026-06-17T22:45:02.337408,14.14840150,.0021944,98.9614,214.9658,181.7660,278.5450,0,U,37214,999,80753,-.11955551E-3,-.276E-5,0
SUOMI NPP,2011-061A,2026-06-17T23:23:52.914336,14.19517523,.00014898,98.7953,109.8456,4.8423,355.2767,0,U,37849,999,75855,.45835296E-4,.52E-6,0
METEOSAT-10 (MSG-3),2012-035B,2026-06-16T22:04:38.846784,1.00276823,.0001486,4.6715,61.0232,328.8582,206.8187,0,U,38552,999,5085,0,-.9E-7,0
METOP-B,2012-049A,2026-06-17T21:26:41.690976,14.21432898,.0002195,98.6504,220.3787,17.9345,342.1910,0,U,38771,999,71336,.56227467E-4,.8E-6,0
INSAT-3D,2013-038B,2026-06-17T22:08:19.544352,1.00268839,.00005805,1.9288,82.5294,314.9768,330.2447,0,U,39216,999,4708,0,-.346E-5,0
FENGYUN 3C,2013-052A,2026-06-17T23:06:06.054912,14.15755172,.00152178,98.4987,142.8018,25.4787,334.7135,0,U,39260,999,65867,.5332172E-4,.63E-6,0
METEOR-M 2,2014-037A,2026-06-17T22:04:38.815680,14.21461300,.00067218,98.5113,144.6325,42.5327,317.6370,0,U,40069,999,61942,.30058302E-4,.24E-6,0
HIMAWARI-8,2014-060A,2026-06-17T22:11:34.232928,1.00271384,.00010321,0.0097,32.4890,58.1333,289.1082,0,U,40267,999,4276,0,-.281E-5,0
FENGYUN 2G,2014-090A,2026-06-17T18:34:29.635968,1.00271765,.00040128,5.6410,72.8081,158.0009,53.5218,0,U,40367,999,4200,0,-.31E-5,0
METEOSAT-11 (MSG-4),2015-034A,2026-06-17T06:10:15.269088,1.00280400,.00017414,3.2014,71.1096,11.8883,284.7520,0,U,40732,999,721,0,.6E-6,0
ELEKTRO-L 2,2015-074A,2026-06-16T15:18:31.243968,1.00270425,.0000972,6.6931,70.5258,242.2635,167.2330,0,U,41105,999,3850,0,-.124E-5,0
SENTINEL-3A,2016-011A,2026-06-17T22:01:42.327264,14.26740193,.00014094,98.6249,236.2911,101.7809,258.3530,0,U,41335,999,53816,.56225124E-4,.92E-6,0
INSAT-3DR,2016-054A,2026-06-17T21:52:28.562880,1.00270972,.00105618,0.1085,86.2690,187.5960,34.3813,0,U,41752,999,3582,0,-.82E-6,0
HIMAWARI-9,2016-064A,2026-06-17T22:11:34.232928,1.00270524,.00009414,0.0153,283.2440,207.4747,249.1057,0,U,41836,999,3521,0,-.281E-5,0
GOES 16,2016-071A,2026-06-17T21:01:33.096864,1.00271058,.00002377,0.3438,85.5156,312.9847,78.3164,0,U,41866,999,3511,0,-.96E-6,0
FENGYUN 4A,2016-077A,2026-06-17T23:49:23.497248,1.00268223,.0008586,2.3256,80.2790,153.3107,153.7451,0,U,41882,999,3493,0,-.364E-5,0
CYGFM05,2016-078A,2026-06-17T15:04:49.561824,15.56688646,.00070109,34.9565,257.6688,155.8630,204.2424,0,U,41884,999,52882,.26107637E-3,.19269E-3,0
CYGFM04,2016-078B,2026-06-17T12:48:27.746208,15.61530426,.0006748,34.9311,225.9685,198.5401,161.5079,0,U,41885,999,52905,.2653E-3,.23569E-3,0
CYGFM02,2016-078C,2026-06-17T12:48:29.607264,15.64521931,.000777,34.9390,220.4939,199.5292,160.5137,0,U,41886,999,52922,.27097E-3,.27107E-3,0
CYGFM01,2016-078D,2026-06-17T14:48:17.960256,15.57366631,.00067791,34.9394,258.7983,149.0020,211.1105,0,U,41887,999,52877,.26326444E-3,.19933E-3,0
CYGFM08,2016-078E,2026-06-17T13:48:53.550720,15.60037208,.0008409,34.9420,238.6407,181.0555,179.0154,0,U,41888,999,52903,.26759E-3,.22448E-3,0
CYGFM07,2016-078G,2026-06-17T12:50:01.149792,15.60133044,.0007144,34.9433,227.2545,197.5321,162.5158,0,U,41890,999,52905,.25426E-3,.21393E-3,0
CYGFM03,2016-078H,2026-06-17T13:40:24.895776,15.60130523,.0006561,34.9388,228.9588,185.7876,174.2774,0,U,41891,999,52903,.26922E-3,.22653E-3,0
